CCSDS_OMM_VERS = 2.0
CREATION_DATE  = 
ORIGINATOR     = 

OBJECT_NAME    = 1998-067XU
OBJECT_ID      = 1998-067XU
CENTER_NAME    = EARTH
REF_FRAME      = TEME
TIME_SYSTEM    = UTC
MEAN_ELEMENT_THEORY = SGP/SGP4

EPOCH          = 2026-01-30T01:14:59.266176
MEAN_MOTION    = 15.59570858
ECCENTRICITY   = .00028091
INCLINATION    = 51.6273
RA_OF_ASC_NODE = 261.1529
ARG_OF_PERICENTER = 150.0773
MEAN_ANOMALY   = 210.0381

EPHEMERIS_TYPE = 0
CLASSIFICATION_TYPE = U
NORAD_CAT_ID   = 66908
ELEMENT_SET_NO = 999
REV_AT_EPOCH   = 913
BSTAR          = .14337321E-2
MEAN_MOTION_DOT = .117469E-2
MEAN_MOTION_DDOT = 0

CCSDS_OMM_VERS = 2.0
CREATION_DATE  = 
ORIGINATOR     = 

OBJECT_NAME    = SILVERSAT
OBJECT_ID      = 1998-067XV
CENTER_NAME    = EARTH
REF_FRAME      = TEME
TIME_SYSTEM    = UTC
MEAN_ELEMENT_THEORY = SGP/SGP4

EPOCH          = 2026-01-30T08:30:38.636640
MEAN_MOTION    = 15.60771787
ECCENTRICITY   = .0003288
INCLINATION    = 51.6279
RA_OF_ASC_NODE = 259.4248
ARG_OF_PERICENTER = 163.8706
MEAN_ANOMALY   = 196.2392

EPHEMERIS_TYPE = 0
CLASSIFICATION_TYPE = U
NORAD_CAT_ID   = 66909
ELEMENT_SET_NO = 999
REV_AT_EPOCH   = 918
BSTAR          = .15298E-2
MEAN_MOTION_DOT = .131519E-2
MEAN_MOTION_DDOT = 0

CCSDS_OMM_VERS = 2.0
CREATION_DATE  = 
ORIGINATOR     = 

OBJECT_NAME    = 1998-067XW
OBJECT_ID      = 1998-067XW
CENTER_NAME    = EARTH
REF_FRAME      = TEME
TIME_SYSTEM    = UTC
MEAN_ELEMENT_THEORY = SGP/SGP4

EPOCH          = 2026-01-30T08:42:22.580640
MEAN_MOTION    = 15.59763179
ECCENTRICITY   = .0001545
INCLINATION    = 51.6269
RA_OF_ASC_NODE = 259.4751
ARG_OF_PERICENTER = 149.9128
MEAN_ANOMALY   = 210.1954

EPHEMERIS_TYPE = 0
CLASSIFICATION_TYPE = U
NORAD_CAT_ID   = 66910
ELEMENT_SET_NO = 999
REV_AT_EPOCH   = 918
BSTAR          = .13335E-2
MEAN_MOTION_DOT = .109916E-2
MEAN_MOTION_DDOT = 0

CCSDS_OMM_VERS = 2.0
CREATION_DATE  = 
ORIGINATOR     = 

OBJECT_NAME    = 1998-067XX
OBJECT_ID      = 1998-067XX
CENTER_NAME    = EARTH
REF_FRAME      = TEME
TIME_SYSTEM    = UTC
MEAN_ELEMENT_THEORY = SGP/SGP4

EPOCH          = 2026-01-30T00:16:35.694336
MEAN_MOTION    = 15.61740265
ECCENTRICITY   = .00024208
INCLINATION    = 51.6259
RA_OF_ASC_NODE = 260.8786
ARG_OF_PERICENTER = 180.1985
MEAN_ANOMALY   = 179.9008

EPHEMERIS_TYPE = 0
CLASSIFICATION_TYPE = U
NORAD_CAT_ID   = 66911
ELEMENT_SET_NO = 999
REV_AT_EPOCH   = 912
BSTAR          = .14017127E-2
MEAN_MOTION_DOT = .124951E-2
MEAN_MOTION_DDOT = 0

CCSDS_OMM_VERS = 2.0
CREATION_DATE  = 
ORIGINATOR     = 

OBJECT_NAME    = 1998-067XY
OBJECT_ID      = 1998-067XY
CENTER_NAME    = EARTH
REF_FRAME      = TEME
TIME_SYSTEM    = UTC
MEAN_ELEMENT_THEORY = SGP/SGP4

EPOCH          = 2026-01-30T00:35:36.024864
MEAN_MOTION    = 15.57293463
ECCENTRICITY   = .00024257
INCLINATION    = 51.6286
RA_OF_ASC_NODE = 261.7221
ARG_OF_PERICENTER = 121.2070
MEAN_ANOMALY   = 238.9160

EPHEMERIS_TYPE = 0
CLASSIFICATION_TYPE = U
NORAD_CAT_ID   = 66912
ELEMENT_SET_NO = 999
REV_AT_EPOCH   = 911
BSTAR          = .10441261E-2
MEAN_MOTION_DOT = .77959E-3
MEAN_MOTION_DDOT = 0

